SHIYAN-24C 01           
1 58650U 23206A   26068.89348774  .00002076  00000+0  18089-3 0  9992
2 58650  97.3976  41.7846 0003675 132.3262 227.8273 14.97903598120444
STARLINK-34061          
1 63876U 25094N   26068.85947909  .00004223  00000+0  36145-3 0  9995
2 63876  70.0018 234.2253 0003093 273.3985  86.6821 14.98336916 47227
